$$SOE
2460147.500000000, A.D. 2023-Jul-22 00:00:00.0000, -1.230165316166935E+08, -2.970720909087268E+08, -1.596760852675579E+07,
2460154.500000000, A.D. 2023-Jul-29 00:00:00.0000, -1.119098770826114E+08, -3.026910224174251E+08, -1.511337622516322E+07,
2460161.500000000, A.D. 2023-Aug-05 00:00:00.0000, -1.006421477493397E+08, -3.078742534390021E+08, -1.423738443828012E+07,
2460168.500000000, A.D. 2023-Aug-12 00:00:00.0000, -8.923110053722879E+07, -3.126190186308484E+08, -1.334111114614713E+07,
2460175.500000000, A.D. 2023-Aug-19 00:00:00.0000, -7.769434203369597E+07, -3.169232997741985E+08, -1.242603496864781E+07,
2460182.500000000, A.D. 2023-Aug-26 00:00:00.0000, -6.604929879555704E+07, -3.207857997687398E+08, -1.149363213561936E+07,
2460189.500000000, A.D. 2023-Sep-02 00:00:00.0000, -5.431319026495318E+07, -3.242059159885618E+08, -1.054537367146596E+07,
2460196.500000000, A.D. 2023-Sep-09 00:00:00.0000, -4.250300419103253E+07, -3.271837132566093E+08, -9.582722799045831E+06,
2460203.500000000, A.D. 2023-Sep-16 00:00:00.0000, -3.063547430652511E+07, -3.297198966943773E+08, -8.607132579282805E+06,
2460210.500000000, A.D. 2023-Sep-23 00:00:00.0000, -1.872705974956612E+07, -3.318157843402359E+08, -7.620043796139657E+06,
2460217.500000000, A.D. 2023-Sep-30 00:00:00.0000, -6.793926468057077E+06, -3.334732785077700E+08, -6.622882952332407E+06,
2460224.500000000, A.D. 2023-Oct-07 00:00:00.0000, 5.148067149156036E+06, -3.346948365703552E+08, -5.617060197314262E+06,
2460231.500000000, A.D. 2023-Oct-14 00:00:00.0000, 1.708338157017587E+07, -3.354834446119062E+08, -4.603967546294466E+06,
2460238.500000000, A.D. 2023-Oct-21 00:00:00.0000, 2.899680769515982E+07, -3.358425924562503E+08, -3.584977547520220E+06,
2460245.500000000, A.D. 2023-Oct-28 00:00:00.0000, 4.087347740380989E+07, -3.357762479168307E+08, -2.561442073742002E+06,
2460252.500000000, A.D. 2023-Nov-04 00:00:00.0000, 5.269887194451857E+07, -3.352888311230329E+08, -1.534691176971778E+06,
2460259.500000000, A.D. 2023-Nov-11 00:00:00.0000, 6.445882846140698E+07, -3.343851895948396E+08, -5.060320624755174E+05,
2460266.500000000, A.D. 2023-Nov-18 00:00:00.0000, 7.613954499531388E+07, -3.330705741892889E+08, 5.232518020087928E+05,
2460273.500000000, A.D. 2023-Nov-25 00:00:00.0000, 8.772758414533323E+07, -3.313506159427917E+08, 1.551901446146265E+06,
2460280.500000000, A.D. 2023-Dec-02 00:00:00.0000, 9.920987553082612E+07, -3.292313038558755E+08, 2.578683031190917E+06,
2460287.500000000, A.D. 2023-Dec-09 00:00:00.0000, 1.105737172414545E+08, -3.267189637069224E+08, 3.602388355088189E+06,
2460294.500000000, A.D. 2023-Dec-16 00:00:00.0000, 1.218067766680382E+08, -3.238202379044091E+08, 4.621835211891130E+06,
2460301.500000000, A.D. 2023-Dec-23 00:00:00.0000, 1.328970911615357E+08, -3.205420657053676E+08, 5.635867638399035E+06,
2460308.500000000, A.D. 2023-Dec-30 00:00:00.0000, 1.438330672725217E+08, -3.168916627573189E+08, 6.643356264855906E+06,
2460315.500000000, A.D. 2024-Jan-06 00:00:00.0000, 1.546034768860314E+08, -3.128765023214008E+08, 7.643198746668279E+06,
2460322.500000000, A.D. 2024-Jan-13 00:00:00.0000, 1.651974535088436E+08, -3.085042999741893E+08, 8.634319845127016E+06,
2460329.500000000, A.D. 2024-Jan-20 00:00:00.0000, 1.756044900138995E+08, -3.037829986931267E+08, 9.615671303647295E+06,
2460336.500000000, A.D. 2024-Jan-27 00:00:00.0000, 1.858144358884644E+08, -2.987207536605643E+08, 1.058623176551189E+07,
2460343.500000000, A.D. 2024-Feb-03 00:00:00.0000, 1.958174936273561E+08, -2.933259177178485E+08, 1.154500670109738E+07,
2460350.500000000, A.D. 2024-Feb-10 00:00:00.0000, 2.056042146137637E+08, -2.876070277400682E+08, 1.249102830121534E+07,
2460357.500000000, A.D. 2024-Feb-17 00:00:00.0000, 2.151654946871488E+08, -2.815727919010299E+08, 1.342335533012195E+07,
2460364.500000000, A.D. 2024-Feb-24 00:00:00.0000, 2.244925694901124E+08, -2.752320777895941E+08, 1.434107294145234E+07,
2460371.500000000, A.D. 2024-Mar-02 00:00:00.0000, 2.335770096744311E+08, -2.685939013837810E+08, 1.524329245660989E+07,
2460378.500000000, A.D. 2024-Mar-09 00:00:00.0000, 2.424107161519670E+08, -2.616674169174195E+08, 1.612915109223762E+07,
2460385.500000000, A.D. 2024-Mar-16 00:00:00.0000, 2.509859158295285E+08, -2.544619074143526E+08, 1.699781162125640E+07,
2460392.500000000, A.D. 2024-Mar-23 00:00:00.0000, 2.592951577622602E+08, -2.469867747547811E+08, 1.784846207210185E+07,
2460399.500000000, A.D. 2024-Mar-30 00:00:00.0000, 2.673313075148156E+08, -2.392515292709226E+08, 1.868031567259957E+07,
2460406.500000000, A.D. 2024-Apr-06 00:00:00.0000, 2.750875400131143E+08, -2.312657822023895E+08, 1.949261074105754E+07,
2460413.500000000, A.D. 2024-Apr-13 00:00:00.0000, 2.825573344690877E+08, -2.230392401358170E+08, 2.028461026863203E+07,
2460420.500000000, A.D. 2024-Apr-20 00:00:00.0000, 2.897344704619678E+08, -2.145816987206018E+08, 2.105560150226302E+07,
2460427.500000000, A.D. 2024-Apr-27 00:00:00.0000, 2.966130236914845E+08, -2.059030361975180E+08, 2.180489562567857E+07,
2460434.500000000, A.D. 2024-May-04 00:00:00.0000, 3.031873615163092E+08, -1.970132074202112E+08, 2.253182747683322E+07,
2460441.500000000, A.D. 2024-May-11 00:00:00.0000, 3.094521385359547E+08, -1.879222384460448E+08, 2.323575527467946E+07,
2460448.500000000, A.D. 2024-May-18 00:00:00.0000, 3.154022923149997E+08, -1.786402216472978E+08, 2.391606035192622E+07,
2460455.500000000, A.D. 2024-May-25 00:00:00.0000, 3.210330392896211E+08, -1.691773113217915E+08, 2.457214689296542E+07,
2460462.500000000, A.D. 2024-Jun-01 00:00:00.0000, 3.263398709294893E+08, -1.595437198325475E+08, 2.520344166842075E+07,
2460469.500000000, A.D. 2024-Jun-08 00:00:00.0000, 3.313185504121000E+08, -1.497497142707483E+08, 2.580939374292954E+07,
2460476.500000000, A.D. 2024-Jun-15 00:00:00.0000, 3.359651102204374E+08, -1.398056130669351E+08, 2.638947416536848E+07,
2460483.500000000, A.D. 2024-Jun-22 00:00:00.0000, 3.402758496737792E+08, -1.297217813485873E+08, 2.694317583232012E+07,
2460490.500000000, A.D. 2024-Jun-29 00:00:00.0000, 3.442473302827860E+08, -1.195086268432544E+08, 2.747001357298383E+07,
2460497.500000000, A.D. 2024-Jul-06 00:00:00.0000, 3.478763715795519E+08, -1.091765987748251E+08, 2.796952401169939E+07,
2460504.500000000, A.D. 2024-Jul-13 00:00:00.0000, 3.511600493770463E+08, -9.873618690210812E+07, 2.844126526061152E+07,
2460511.500000000, A.D. 2024-Jul-20 00:00:00.0000, 3.540956944801707E+08, -8.819791952592853E+07, 2.888481671971459E+07,
2460518.500000000, A.D. 2024-Jul-27 00:00:00.0000, 3.566808911999884E+08, -7.757236140086830E+07, 2.929977896727230E+07,
2460525.500000000, A.D. 2024-Aug-03 00:00:00.0000, 3.589134759503208E+08, -6.687011190356653E+07, 2.968577368591196E+07,
2460532.500000000, A.D. 2024-Aug-10 00:00:00.0000, 3.607915360980291E+08, -5.610180343895579E+07, 3.004244360965469E+07,
2460539.500000000, A.D. 2024-Aug-17 00:00:00.0000, 3.623134091196060E+08, -4.527810003973280E+07, 3.036945249013284E+07,
2460546.500000000, A.D. 2024-Aug-24 00:00:00.0000, 3.634776820971776E+08, -3.440969615885189E+07, 3.066648507846840E+07,
2460553.500000000, A.D. 2024-Aug-31 00:00:00.0000, 3.642831916740793E+08, -2.350731569531962E+07, 3.093324710786167E+07,
2460560.500000000, A.D. 2024-Sep-07 00:00:00.0000, 3.647290248368444E+08, -1.258171110655082E+07, 3.116946525360066E+07,
2460567.500000000, A.D. 2024-Sep-14 00:00:00.0000, 3.648145206071853E+08, -1.643661588382291E+06, 3.137488714355452E+07,
2460574.500000000, A.D. 2024-Sep-21 00:00:00.0000, 3.645392706181191E+08, 9.296030114630420E+06, 3.154928163990049E+07,
2460581.500000000, A.D. 2024-Sep-28 00:00:00.0000, 3.639031180915973E+08, 2.022653906082603E+07, 3.169243917399165E+07,
2460588.500000000, A.D. 2024-Oct-05 00:00:00.0000, 3.629061588834911E+08, 3.113701764685046E+07, 3.180417179671912E+07,
2460595.500000000, A.D. 2024-Oct-12 00:00:00.0000, 3.615487442299824E+08, 4.201659633306767E+07, 3.188431322001258E+07,
2460602.500000000, A.D. 2024-Oct-19 00:00:00.0000, 3.598314834440039E+08, 5.285438531584048E+07, 3.193271898835102E+07,
2460609.500000000, A.D. 2024-Oct-26 00:00:00.0000, 3.577552465313264E+08, 6.363947637219334E+07, 3.194926671880119E+07,
2460616.500000000, A.D. 2024-Nov-02 00:00:00.0000, 3.553211669859570E+08, 7.436094475455034E+07, 3.193385637511259E+07,
2460623.500000000, A.D. 2024-Nov-09 00:00:00.0000, 3.525306448630978E+08, 8.500785118177295E+07, 3.188641056995626E+07,
2460630.500000000, A.D. 2024-Nov-16 00:00:00.0000, 3.493853501560313E+08, 9.556924395230204E+07, 3.180687489407985E+07,
2460637.500000000, A.D. 2024-Nov-23 00:00:00.0000, 3.458872265233602E+08, 1.060341611555232E+08, 3.169521826500745E+07,
2460644.500000000, A.D. 2024-Nov-30 00:00:00.0000, 3.420384955738394E+08, 1.163916329644115E+08, 3.155143327346653E+07,
2460651.500000000, A.D. 2024-Dec-07 00:00:00.0000, 3.378416621239277E+08, 1.266306844532829E+08, 3.137553652308524E+07,
2460658.500000000, A.D. 2024-Dec-14 00:00:00.0000, 3.332995197265801E+08, 1.367403401879617E+08, 3.116756912463626E+07,
2460665.500000000, A.D. 2024-Dec-21 00:00:00.0000, 3.284151541390042E+08, 1.467096293780356E+08, 3.092759745513871E+07,
2460672.500000000, A.D. 2024-Dec-28 00:00:00.0000, 3.231919466929846E+08, 1.565275886547814E+08, 3.065571375789479E+07,
2460679.500000000, A.D. 2025-Jan-04 00:00:00.0000, 3.176335801490394E+08, 1.661832648817287E+08, 3.035203653772085E+07,
2460686.500000000, A.D. 2025-Jan-11 00:00:00.0000, 3.117440451969078E+08, 1.756657196952580E+08, 3.001671105414012E+07,
2460693.500000000, A.D. 2025-Jan-18 00:00:00.0000, 3.055276466756123E+08, 1.849640348950832E+08, 2.964990992327654E+07,
2460700.500000000, A.D. 2025-Jan-25 00:00:00.0000, 2.989890097469612E+08, 1.940673182452409E+08, 2.925183376849248E+07,
2460707.500000000, A.D. 2025-Feb-01 00:00:00.0000, 2.921330861974916E+08, 2.029647096883559E+08, 2.882271189971852E+07,
2460714.500000000, A.D. 2025-Feb-08 00:00:00.0000, 2.849651609070296E+08, 2.116453880259463E+08, 2.836280301647644E+07,
$$EOE